{
  "norad_id": 59033,
  "name": "STARLINK-31210",
  "history": [
    {
      "epoch": "2026-03-28T19:46:24.642912",
      "apogee_km": 483.85894220795126,
      "perigee_km": 482.2143188887085,
      "latitude_deg": 27.979599175427253,
      "longitude_deg": 162.39404767984524,
      "semi_major_axis_km": 6861.17363054833,
      "eccentricity": 0.00011985,
      "inclination_deg": 43.0006,
      "raan_deg": 275.5855,
      "arg_perigee_deg": 273.9825,
      "mean_anomaly_deg": 86.0889,
      "mean_motion_rev_day": 15.27584163
    }
  ]
}